ASTROCAST-0403          
1 55111U 23001DG  26068.82333059  .00013959  00000+0  51317-3 0  9990
2 55111  97.5604 161.3228 0004771 338.0704  22.0330 15.28004949129377
STARLINK-32330          
1 61850U 24202F   26068.50550716  .00000238  00000+0  18173-4 0  9997
2 61850  42.9996 238.6698 0001587 280.5602  79.5070 15.27571750 75311
